{
  "type": "FeatureCollection",
  "features": [
    {
      "type": "Feature",
      "properties": {
        "norad_id": 31212,
        "name": "FENGYUN 1C DEB",
        "group": "fengyun-1c-debris",
        "lat": -70.50407149578545,
        "lon": -174.9580444593802,
        "alt_km": 881.906765555118,
        "timestamp": "2025-12-26T11:25:45.474969+00:00",
        "meta_object_name": "FENGYUN 1C DEB",
        "meta_object_id": "1999-025BKS",
        "meta_epoch": "2025-12-14T12:45:56.653344",
        "meta_mean_motion": 14.13124373,
        "meta_eccentricity": 0.00752745,
        "meta_inclination": 99.2196,
        "meta_ra_of_asc_node": 20.0508,
        "meta_arg_of_pericenter": 167.0098,
        "meta_mean_anomaly": 193.3035,
        "meta_ephemeris_type": 0,
        "meta_classification_type": "U",
        "meta_norad_cat_id": 31212,
        "meta_element_set_no": 999,
        "meta_rev_at_epoch": 95684,
        "meta_bstar": 0.0014706798,
        "meta_mean_motion_dot": 2.778e-05,
        "meta_mean_motion_ddot": 0,
        "tle_line1": "1 31212U 99025BKS 25348.53190571  .00002778  00000+0  14707-2 0  9991",
        "tle_line2": "2 31212  99.2196  20.0508 0075274 167.0098 193.3035 14.13124373956843"
      },
      "geometry": {
        "type": "Point",
        "coordinates": [
          -174.9580444593802,
          -70.50407149578545
        ]
      }
    },
    {
      "type": "Feature",
      "properties": {
        "norad_id": 31215,
        "name": "FENGYUN 1C DEB",
        "group": "fengyun-1c-debris",
        "lat": 6.460092316009954,
        "lon": 26.237535600358996,
        "alt_km": 798.5283865366819,
        "timestamp": "2025-12-26T11:25:45.474979+00:00",
        "meta_object_name": "FENGYUN 1C DEB",
        "meta_object_id": "1999-025BKV",
        "meta_epoch": "2025-12-25T19:32:37.082976",
        "meta_mean_motion": 14.33854469,
        "meta_eccentricity": 0.00696643,
        "meta_inclination": 99.071,
        "meta_ra_of_asc_node": 204.5073,
        "meta_arg_of_pericenter": 286.3398,
        "meta_mean_anomaly": 73.0133,
        "meta_ephemeris_type": 0,
        "meta_classification_type": "U",
        "meta_norad_cat_id": 31215,
        "meta_element_set_no": 999,
        "meta_rev_at_epoch": 96713,
        "meta_bstar": 0.00099647341,
        "meta_mean_motion_dot": 2.802e-05,
        "meta_mean_motion_ddot": 0,
        "tle_line1": "1 31215U 99025BKV 25359.81431809  .00002802  00000+0  99647-3 0  9994",
        "tle_line2": "2 31215  99.0710 204.5073 0069664 286.3398  73.0133 14.33854469967131"
      },
      "geometry": {
        "type": "Point",
        "coordinates": [
          26.237535600358996,
          6.460092316009954
        ]
      }
    },
    {
      "type": "Feature",
      "properties": {
        "norad_id": 31217,
        "name": "FENGYUN 1C DEB",
        "group": "fengyun-1c-debris",
        "lat": -63.83947450566942,
        "lon": 169.95397867748633,
        "alt_km": 881.0913096565146,
        "timestamp": "2025-12-26T11:25:45.474988+00:00",
        "meta_object_name": "FENGYUN 1C DEB",
        "meta_object_id": "1999-025BKX",
        "meta_epoch": "2025-12-23T11:08:13.117344",
        "meta_mean_motion": 14.17561975,
        "meta_eccentricity": 0.01000754,
        "meta_inclination": 98.6404,
        "meta_ra_of_asc_node": 5.0567,
        "meta_arg_of_pericenter": 129.376,
        "meta_mean_anomaly": 231.6333,
        "meta_ephemeris_type": 0,
        "meta_classification_type": "U",
        "meta_norad_cat_id": 31217,
        "meta_element_set_no": 999,
        "meta_rev_at_epoch": 96500,
        "meta_bstar": 0.00050455664,
        "meta_mean_motion_dot": 1.035e-05,
        "meta_mean_motion_ddot": 0,
        "tle_line1": "1 31217U 99025BKX 25357.46404071  .00001035  00000+0  50456-3 0  9998",
        "tle_line2": "2 31217  98.6404   5.0567 0100075 129.3760 231.6333 14.17561975965008"
      },
      "geometry": {
        "type": "Point",
        "coordinates": [
          169.95397867748633,
          -63.83947450566942
        ]
      }
    },
    {
      "type": "Feature",
      "properties": {
        "norad_id": 31218,
        "name": "FENGYUN 1C DEB",
        "group": "fengyun-1c-debris",
        "lat": -9.464112724758477,
        "lon": 113.34264604317788,
        "alt_km": 646.560756241005,
        "timestamp": "2025-12-26T11:25:45.474997+00:00",
        "meta_object_name": "FENGYUN 1C DEB",
        "meta_object_id": "1999-025BKY",
        "meta_epoch": "2025-12-25T06:07:49.755936",
        "meta_mean_motion": 14.73116823,
        "meta_eccentricity": 0.0012114,
        "meta_inclination": 98.8387,
        "meta_ra_of_asc_node": 110.5283,
        "meta_arg_of_pericenter": 347.9642,
        "meta_mean_anomaly": 12.1272,
        "meta_ephemeris_type": 0,
        "meta_classification_type": "U",
        "meta_norad_cat_id": 31218,
        "meta_element_set_no": 999,
        "meta_rev_at_epoch": 97267,
        "meta_bstar": 0.004789,
        "meta_mean_motion_dot": 0.00030954,
        "meta_mean_motion_ddot": 0,
        "tle_line1": "1 31218U 99025BKY 25359.25543699  .00030954  00000+0  47890-2 0  9997",
        "tle_line2": "2 31218  98.8387 110.5283 0012114 347.9642  12.1272 14.73116823972676"
      },
      "geometry": {
        "type": "Point",
        "coordinates": [
          113.34264604317788,
          -9.464112724758477
        ]
      }
    },
    {
      "type": "Feature",
      "properties": {
        "norad_id": 31219,
        "name": "FENGYUN 1C DEB",
        "group": "fengyun-1c-debris",
        "lat": 1.0814043795801882,
        "lon": -168.96657191650263,
        "alt_km": 804.873697330846,
        "timestamp": "2025-12-26T11:25:45.475006+00:00",
        "meta_object_name": "FENGYUN 1C DEB",
        "meta_object_id": "1999-025BKZ",
        "meta_epoch": "2025-12-21T11:42:00.500256",
        "meta_mean_motion": 14.13828001,
        "meta_eccentricity": 0.00793404,
        "meta_inclination": 99.2832,
        "meta_ra_of_asc_node": 5.679,
        "meta_arg_of_pericenter": 152.7688,
        "meta_mean_anomaly": 207.7678,
        "meta_ephemeris_type": 0,
        "meta_classification_type": "U",
        "meta_norad_cat_id": 31219,
        "meta_element_set_no": 999,
        "meta_rev_at_epoch": 95693,
        "meta_bstar": 0.0010390741,
        "meta_mean_motion_dot": 1.981e-05,
        "meta_mean_motion_ddot": 0,
        "tle_line1": "1 31219U 99025BKZ 25355.48750579  .00001981  00000+0  10391-2 0  9990",
        "tle_line2": "2 31219  99.2832   5.6790 0079340 152.7688 207.7678 14.13828001956935"
      },
      "geometry": {
        "type": "Point",
        "coordinates": [
          -168.96657191650263,
          1.0814043795801882
        ]
      }
    },
    {
      "type": "Feature",
      "properties": {
        "norad_id": 31222,
        "name": "FENGYUN 1C DEB",
        "group": "fengyun-1c-debris",
        "lat": -18.38885203952231,
        "lon": -111.02552515978628,
        "alt_km": 695.1868160949562,
        "timestamp": "2025-12-26T11:25:45.475014+00:00",
        "meta_object_name": "FENGYUN 1C DEB",
        "meta_object_id": "1999-025BLC",
        "meta_epoch": "2025-12-24T15:16:06.335616",
        "meta_mean_motion": 14.98020534,
        "meta_eccentricity": 0.01696928,
        "meta_inclination": 98.611,
        "meta_ra_of_asc_node": 69.8328,
        "meta_arg_of_pericenter": 30.7744,
        "meta_mean_anomaly": 330.3293,
        "meta_ephemeris_type": 0,
        "meta_classification_type": "U",
        "meta_norad_cat_id": 31222,
        "meta_element_set_no": 999,
        "meta_rev_at_epoch": 161,
        "meta_bstar": 0.00057144817,
        "meta_mean_motion_dot": 9.024e-05,
        "meta_mean_motion_ddot": 0,
        "tle_line1": "1 31222U 99025BLC 25358.63618444  .00009024  00000+0  57145-3 0  9993",
        "tle_line2": "2 31222  98.6110  69.8328 0169692  30.7744 330.3293 14.98020534  1618"
      },
      "geometry": {
        "type": "Point",
        "coordinates": [
          -111.02552515978628,
          -18.38885203952231
        ]
      }
    },
    {
      "type": "Feature",
      "properties": {
        "norad_id": 31223,
        "name": "FENGYUN 1C DEB",
        "group": "fengyun-1c-debris",
        "lat": 66.06508945103064,
        "lon": 87.0201378702659,
        "alt_km": 1016.784068018128,
        "timestamp": "2025-12-26T11:25:45.475023+00:00",
        "meta_object_name": "FENGYUN 1C DEB",
        "meta_object_id": "1999-025BLD",
        "meta_epoch": "2025-12-25T15:43:23.551680",
        "meta_mean_motion": 13.77330055,
        "meta_eccentricity": 0.0244779,
        "meta_inclination": 99.0061,
        "meta_ra_of_asc_node": 245.3073,
        "meta_arg_of_pericenter": 6.9645,
        "meta_mean_anomaly": 353.4808,
        "meta_ephemeris_type": 0,
        "meta_classification_type": "U",
        "meta_norad_cat_id": 31223,
        "meta_element_set_no": 999,
        "meta_rev_at_epoch": 92906,
        "meta_bstar": 0.0030362,
        "meta_mean_motion_dot": 3.72e-05,
        "meta_mean_motion_ddot": 0,
        "tle_line1": "1 31223U 99025BLD 25359.65513370  .00003720  00000+0  30362-2 0  9997",
        "tle_line2": "2 31223  99.0061 245.3073 0244779   6.9645 353.4808 13.77330055929066"
      },
      "geometry": {
        "type": "Point",
        "coordinates": [
          87.0201378702659,
          66.06508945103064
        ]
      }
    }
  ]
}